[{"OBJECT_NAME":"SEEDS II (CO-66)","OBJECT_ID":"2008-021J","EPOCH":"2026-03-09T22:06:22.421376","MEAN_MOTION":15.29097236,"ECCENTRICITY":0.00014475,"INCLINATION":97.7519,"RA_OF_ASC_NODE":62.3611,"ARG_OF_PERICENTER":359.2618,"MEAN_ANOMALY":0.8619,"EPHEMERIS_TYPE":0,"CLASSIFICATION_TYPE":"U","NORAD_CAT_ID":32791,"ELEMENT_SET_NO":999,"REV_AT_EPOCH":97210,"BSTAR":0.00084213052,"MEAN_MOTION_DOT":0.00023758,"MEAN_MOTION_DDOT":0},{"OBJECT_NAME":"STARLINK-30197","OBJECT_ID":"2023-105P","EPOCH":"2026-03-09T22:00:01.999584","MEAN_MOTION":15.26481001,"ECCENTRICITY":8.365e-5,"INCLINATION":42.9996,"RA_OF_ASC_NODE":258.3365,"ARG_OF_PERICENTER":285.5306,"MEAN_ANOMALY":275.8435,"EPHEMERIS_TYPE":0,"CLASSIFICATION_TYPE":"U","NORAD_CAT_ID":57443,"ELEMENT_SET_NO":999,"REV_AT_EPOCH":573,"BSTAR":0.0055921327,"MEAN_MOTION_DOT":0.00151669,"MEAN_MOTION_DDOT":0}]
